ONEWEB-0271             
1 48989U 21060Y   25157.36589367  .00000050  00000+0  97654-4 0  9993
2 48989  87.9034 303.6740 0001791 107.5746 252.5580 13.16594651190213
ONEWEB-0272             
1 48990U 21060Z   25157.38804506  .00000111  00000+0  25595-3 0  9994
2 48990  87.9032 303.7014 0001779 104.9079 255.2249 13.16595477190167
ONEWEB-0273             
1 48991U 21060AA  25157.33421746  .00000131  00000+0  30832-3 0  9993
2 48991  87.9033 303.6971 0001980 103.0814 257.0538 13.16596013190136
ONEWEB-0274             
1 48992U 21060AB  25157.35954064  .00000020  00000+0  17553-4 0  9993
2 48992  87.9029 303.7279 0001435 100.6934 259.4359 13.16593551190170
ONEWEB-0275             
1 48993U 21060AC  25157.34847859  .00000048  00000+0  91859-4 0  9997
2 48993  87.9034 303.6885 0001760 101.6270 258.5059 13.16595103190109
ONEWEB-0276             
1 48994U 21060AD  25157.38170729  .00000082  00000+0  18022-3 0  9995
2 48994  87.9033 303.6789 0002009 104.6941 255.4413 13.16593230190128
ONEWEB-0277             
1 48995U 21060AE  25157.39437695  .00000182  00000+0  44113-3 0  9996
2 48995  87.9031 303.7125 0001803 112.6470 247.4852 13.16595929190113
ONEWEB-0278             
1 48996U 21060AF  25157.38488371  .00000110  00000+0  25442-3 0  9998
2 48996  87.9033 303.6751 0002066  95.3684 264.7683 13.16595458190241
ONEWEB-0279             
1 48997U 21060AG  25157.39278708  .00000148  00000+0  35323-3 0  9991
2 48997  87.9033 303.6696 0001646 108.6750 251.4560 13.16595926190174
ONEWEB-0280             
1 48998U 21060AH  25157.63581855  .00000223  00000+0  55026-3 0  9995
2 48998  87.9035 303.6273 0002154 105.1702 254.9667 13.16593719190143
ONEWEB-0281             
1 48999U 21060AJ  25157.33739662  .00000097  00000+0  21935-3 0  9995
2 48999  87.9035 303.6846 0001659  95.1190 265.0130 13.16594879190177
ONEWEB-0282             
1 49000U 21060AK  25157.36744756 -.00000219  00000+0 -60596-3 0  9996
2 49000  87.9027 303.6930 0001929 104.0945 256.0400 13.16593786190158
ONEWEB-0283             
1 49001U 21060AL  25157.35639203  .00000025  00000+0  32385-4 0  9995
2 49001  87.9027 303.6990 0001759 105.2457 254.8868 13.16595821190164
ONEWEB-0284             
1 49002U 21060AM  25157.35003771  .00000027  00000+0  37596-4 0  9992
2 49002  87.9037 303.6669 0002176  95.9181 264.2198 13.16596844190147
ONEWEB-0285             
1 49075U 21075A   25157.43979087  .00000188  00000+0  48832-3 0  9991
2 49075  87.8889  65.3999 0001991  78.7715 281.3637 13.12441171185921
ONEWEB-0286             
1 49076U 21075B   25157.49792537  .00000410  00000+0  11049-2 0  9998
2 49076  87.8911  65.4044 0001942  73.1862 286.9480 13.12442971185283
ONEWEB-0287             
1 49077U 21075C   25157.51042186  .00000018  00000+0  12957-4 0  9995
2 49077  87.9069  80.6576 0002239  69.3130 290.8241 13.17650999184153
ONEWEB-0288             
1 49078U 21075D   25157.47369926 -.00000490  00000+0 -13972-2 0  9997
2 49078  87.8884  65.3871 0002059  77.5845 282.5513 13.12443242185900
ONEWEB-0289             
1 49079U 21075E   25157.53910856  .00000072  00000+0  15341-3 0  9996
2 49079  87.9070  80.6836 0002437  85.6928 274.4482 13.17650116184732
ONEWEB-0290             
1 49080U 21075F   25157.52223002  .00000047  00000+0  88561-4 0  9994
2 49080  87.9069  80.6429 0002416  92.8172 267.3236 13.17649818184148
ONEWEB-0291             
1 49081U 21075G   25157.27923073  .00000027  00000+0  35718-4 0  9996
2 49081  87.9064  80.6949 0002255  77.7568 282.3815 13.17652430184103
ONEWEB-0293             
1 49082U 21075H   25157.53235261  .00000043  00000+0  77966-4 0  9990
2 49082  87.9069  80.6763 0002109  81.4304 278.7066 13.17651710184164
ONEWEB-0294             
1 49083U 21075J   25157.48019835 -.00000059  00000+0 -20060-3 0  9993
2 49083  87.8886  65.3850 0002417  84.5253 275.6151 13.12443460185299
ONEWEB-0295             
1 49084U 21075K   25157.53150936  .00000110  00000+0  25096-3 0  9998
2 49084  87.9084  80.6688 0002294  72.8403 287.2980 13.17648436184125
ONEWEB-0296             
1 49085U 21075L   25157.46072242 -.00000364  00000+0 -10472-2 0  9998
2 49085  87.8888  65.3969 0002529  73.4826 286.6580 13.12441816185292
ONEWEB-0297             
1 49086U 21075M   25157.49155093  .00000308  00000+0  82012-3 0  9994
2 49086  87.8895  65.4243 0001905  75.6714 284.4626 13.12445466185904
ONEWEB-0298             
1 49087U 21075N   25157.53587201  .00000054  00000+0  10525-3 0  9998
2 49087  87.9070  80.6734 0001925  73.0674 287.0669 13.17649225184150
ONEWEB-0299             
1 49088U 21075P   25157.53741484  .00000083  00000+0  18142-3 0  9999
2 49088  87.9066  80.6271 0002010  72.7050 287.4301 13.17650520184137
ONEWEB-0300             
1 49089U 21075Q   25157.48343721  .00000083  00000+0  19467-3 0  9997
2 49089  87.8885  65.3828 0001560  76.9110 283.2192 13.12445659185926
ONEWEB-0301             
1 49090U 21075R   25157.46721818 -.00000331  00000+0 -95656-3 0  9996
2 49090  87.8887  65.3919 0001451  77.3874 282.7417 13.12443602185281
ONEWEB-0302             
1 49091U 21075S   25157.45424094 -.00000219  00000+0 -64449-3 0  9993
2 49091  87.8887  65.3955 0002307  81.0062 279.1328 13.12443425185266
ONEWEB-0304             
1 49092U 21075T   25157.51210455 -.00000274  00000+0 -73946-3 0  9998
2 49092  87.9070  80.6617 0002093  75.4266 284.7098 13.17649281184103
ONEWEB-0305             
1 49093U 21075U   25157.50536043  .00000038  00000+0  65536-4 0  9995
2 49093  87.9067  80.6407 0002197  67.7725 292.3639 13.17649263184135
ONEWEB-0308             
1 49094U 21075V   25157.29527467 -.00000066  00000+0 -22006-3 0  9999
2 49094  87.8886  65.4222 0001876  78.8576 281.2764 13.12441265185257
ONEWEB-0309             
1 49095U 21075W   25157.50875369  .00000028  00000+0  39234-4 0  9999
2 49095  87.9071  80.6560 0002450  84.1417 275.9994 13.17649636184107
ONEWEB-0310             
1 49096U 21075X   25157.46233784 -.00000348  00000+0 -10031-2 0  9993
2 49096  87.8896  65.4296 0002039  79.7003 280.4355 13.12441801185903
ONEWEB-0311             
1 49097U 21075Y   25157.51549018  .00000013  00000+0 -89560-8 0  9997
2 49097  87.9070  80.6562 0002131  67.7631 292.3726 13.17650495184157
ONEWEB-0312             
1 49098U 21075Z   25157.53067719 -.00000013  00000+0 -65763-4 0  9999
2 49098  87.9069  80.6839 0002370  74.4494 285.6899 13.17649973184133
ONEWEB-0313             
1 49099U 21075AA  25157.53559293  .00000020  00000+0  17484-4 0  9996
2 49099  87.9070  80.6987 0001911  74.9592 285.1751 13.17650268184124
ONEWEB-0314             
1 49100U 21075AB  25157.50198796  .00000039  00000+0  66118-4 0  9991
2 49100  87.9067  80.6372 0002353  73.0154 287.1235 13.17649916184099
ONEWEB-0315             
1 49101U 21075AC  25157.43639868  .00000314  00000+0  83876-3 0  9999
2 49101  87.8884  65.3844 0001844  66.2304 293.9018 13.12444319185882
ONEWEB-0316             
1 49102U 21075AD  25157.41908650  .00000032  00000+0  47934-4 0  9999
2 49102  87.9157  50.1448 0001832  72.8497 287.2836 13.18687335187689
ONEWEB-0317             
1 49103U 21075AE  25157.50615460  .00000412  00000+0  11099-2 0  9997
2 49103  87.8887  65.3857 0002397  96.2626 263.8776 13.12441915185915
ONEWEB-0318             
1 49104U 21075AF  25157.41593463  .00000085  00000+0  18270-3 0  9991
2 49104  87.9158  50.1309 0001856  70.6205 289.5127 13.18686152187647
ONEWEB-0319             
1 49105U 21075AG  25157.51716475 -.00000008  00000+0 -53266-4 0  9995
2 49105  87.9069  80.6806 0002151  66.9590 293.1769 13.17650442184139
ONEWEB-0323             
1 49106U 21075AH  25157.49642001  .00000429  00000+0  11566-2 0  9996
2 49106  87.8886  65.3734 0002188  58.3499 301.7842 13.12444915185274
ONEWEB-0329             
1 49107U 21075AJ  25157.52561290  .00000049  00000+0  91749-4 0  9992
2 49107  87.9069  80.6838 0002141  73.6786 286.4581 13.17650564184117
ONEWEB-0330             
1 49108U 21075AK  25157.52729808 -.00000023  00000+0 -93375-4 0  9995
2 49108  87.9071  80.6860 0002238  77.8010 282.3372 13.17649370184159
ONEWEB-0292             
1 49186U 21083A   25157.38147016 -.00000345  00000+0 -97887-3 0  9997
2 49186  87.8982  34.9473 0001800  75.6103 284.5226 13.13469576181591
ONEWEB-0303             
1 49187U 21083B   25157.41277342  .00000061  00000+0  12123-3 0  9991
2 49187  87.9157  50.1331 0001871  72.3283 287.8053 13.18686951180452
ONEWEB-0306             
1 49188U 21083C   25157.40328719  .00000086  00000+0  18561-3 0  9995
2 49188  87.9157  50.1198 0001908  84.1846 275.9503 13.18686438180493
ONEWEB-0307             
1 49189U 21083D   25157.37555291 -.00000227  00000+0 -65690-3 0  9993
2 49189  87.8984  34.9522 0002075  88.3134 271.8233 13.13470132181598
ONEWEB-0320             
1 49190U 21083E   25157.40960631  .00000103  00000+0  22848-3 0  9996
2 49190  87.9156  50.1480 0001911  78.6891 281.4456 13.18688030180456
ONEWEB-0321             
1 49191U 21083F   25157.52301117  .00000021  00000+0  20068-4 0  9990
2 49191  87.9259 349.2548 0001917  99.1048 261.0302 13.20771670187240
ONEWEB-0322             
1 49192U 21083G   25157.37133563 -.00000175  00000+0 -51533-3 0  9994
2 49192  87.8984  34.9426 0001879  93.4970 266.6374 13.13471488181583
ONEWEB-0324             
1 49193U 21083H   25157.39537798  .00000102  00000+0  22488-3 0  9990
2 49193  87.9157  50.1295 0002067  76.9509 283.1854 13.18687852180478
ONEWEB-0325             
1 49194U 21083J   25157.40011841  .00000084  00000+0  17989-3 0  9998
2 49194  87.9156  50.1460 0001857  81.8059 278.3284 13.18688026180481
ONEWEB-0326             
1 49195U 21083K   25157.41448025  .00000092  00000+0  20029-3 0  9996
2 49195  87.9155  50.1335 0001797  66.3710 293.7611 13.18687930180474
ONEWEB-0327             
1 49196U 21083L   25157.41422568  .00000036  00000+0  59269-4 0  9998
2 49196  87.9155  50.1621 0001774  69.9452 290.1871 13.18685908180494
